OBJECT_NAME,OBJECT_ID,EPOCH,MEAN_MOTION,ECCENTRICITY,INCLINATION,RA_OF_ASC_NODE,ARG_OF_PERICENTER,MEAN_ANOMALY,EPHEMERIS_TYPE,CLASSIFICATION_TYPE,NORAD_CAT_ID,ELEMENT_SET_NO,REV_AT_EPOCH,BSTAR,MEAN_MOTION_DOT,MEAN_MOTION_DDOT
STARLINK-34528,2025-133H,2026-06-11T23:00:35.039232,15.34410098,.00013053,53.1594,35.9351,105.9421,254.1726,0,U,64479,999,5564,.71915445E-3,.24007E-3,0
STARLINK-34518,2025-133J,2026-06-11T22:54:58.642560,15.30195673,.00011178,53.1590,38.7488,98.3951,261.7177,0,U,64480,999,5546,.79358876E-3,.23215E-3,0
STARLINK-34526,2025-133K,2026-06-11T22:50:23.326368,15.30265484,.00008562,53.1592,38.7282,94.9502,265.1596,0,U,64481,999,5551,.17491354E-2,.51913E-3,0
STARLINK-34527,2025-133L,2026-06-11T22:36:44.125632,15.30206649,.00011138,53.1586,38.6672,93.1774,266.9354,0,U,64482,999,5562,.49310103E-3,.14276E-3,0
STARLINK-34420,2025-133M,2026-06-11T22:27:37.370016,15.30204970,.0001017,53.1591,38.6296,82.8965,277.2151,0,U,64483,999,5562,.66440301E-3,.19373E-3,0
STARLINK-34509,2025-133N,2026-06-11T22:23:14.383968,15.30228460,.00014448,53.1600,39.3203,89.3007,270.8159,0,U,64484,999,5561,.60743821E-3,.1769E-3,0
STARLINK-34409,2025-133P,2026-06-11T22:20:11.281632,15.30195997,.00010905,53.1599,39.3015,71.1785,288.9334,0,U,64485,999,5561,.4062501E-3,.1169E-3,0
STARLINK-34520,2025-133Q,2026-06-11T22:15:37.934496,15.30198500,.00008663,53.1597,39.2837,77.2119,282.8978,0,U,64486,999,5561,.7691841E-3,.2249E-3,0
STARLINK-34477,2025-133R,2026-06-11T22:11:03.460704,15.30208940,.00009668,53.1607,39.2668,66.4655,293.6448,0,U,64487,999,5560,.72685886E-3,.21236E-3,0
STARLINK-34217,2025-133S,2026-06-11T22:06:30.649248,15.30204433,.00008313,53.1607,39.2449,85.7858,274.3238,0,U,64488,999,5550,.94783074E-3,.27822E-3,0
STARLINK-34307,2025-133T,2026-06-11T22:01:58.059840,15.30201517,.00013266,53.1608,39.2253,88.2264,271.8889,0,U,64489,999,5559,.63380355E-3,.1846E-3,0
STARLINK-34505,2025-133U,2026-06-11T21:57:23.662080,15.30205891,.00014079,53.1615,39.2012,95.5835,264.5327,0,U,64490,999,5559,.10209148E-2,.30005E-3,0
STARLINK-34530,2025-133V,2026-06-11T23:15:44.079552,15.34390838,.00010546,53.1599,35.9921,94.2119,265.9004,0,U,64491,999,5563,.5605868E-3,.18606E-3,0
STARLINK-34522,2025-133W,2026-06-11T23:09:40.540320,15.34397729,.00010929,53.1604,35.9674,91.2489,268.8639,0,U,64492,999,5566,.56980364E-3,.18923E-3,0
STARLINK-34462,2025-133X,2026-06-11T23:06:38.514528,15.34368039,.00012287,53.1607,35.9521,77.0330,283.0809,0,U,64493,999,5566,.48818072E-3,.16137E-3,0
STARLINK-34226,2025-133Y,2026-06-11T21:18:55.116288,15.31700760,.00014927,53.1590,39.0398,123.1400,236.9745,0,U,64494,999,5544,.56419897E-3,.17183E-3,0
STARLINK-34364,2025-133Z,2026-06-11T21:53:55.521888,15.34394459,.00010179,53.1605,35.6203,103.9297,256.1819,0,U,64495,999,5566,.75225043E-3,.2512E-3,0
STARLINK-34363,2025-133AB,2026-06-11T22:57:32.993568,15.34404725,.00013033,53.1592,35.9146,131.8800,228.2314,0,U,64497,999,5566,.61328338E-3,.20404E-3,0
STARLINK-34427,2025-133AC,2026-06-11T21:23:56.520096,15.30227130,.00011095,53.1593,39.0554,94.9942,265.1185,0,U,64498,999,5561,.89044832E-3,.26128E-3,0
STARLINK-34280,2025-137A,2026-06-11T12:54:25.309152,15.30211084,.0001245,53.1610,259.3152,88.3901,271.7242,0,U,64594,999,5510,.91856E-3,.26954E-3,0
STARLINK-34517,2025-137B,2026-06-11T22:00:01.999584,15.34401993,.00012948,53.1602,257.5814,87.7385,185.2862,0,U,64595,999,582,-.72413986E-3,-.24764E-3,0
STARLINK-34510,2025-137C,2026-06-11T11:40:07.163328,15.30214669,.0001391,53.1584,259.7010,82.2655,277.8503,0,U,64596,999,5509,.10109E-2,.29714E-3,0
STARLINK-34486,2025-137D,2026-06-11T12:15:04.569984,15.30200343,.0001778,53.1609,259.8474,39.5522,320.5608,0,U,64597,999,5509,.59335E-3,.17255E-3,0
STARLINK-34463,2025-137E,2026-06-11T17:44:21.521472,15.34358490,.00011135,53.1599,258.4331,84.0484,276.0646,0,U,64598,999,5513,.63547668E-3,.21127E-3,0
STARLINK-34294,2025-137F,2026-06-11T13:15:41.522688,15.30210010,.000139,53.1596,259.4072,99.5886,260.5272,0,U,64599,999,5510,.59887E-3,.17425E-3,0
STARLINK-34504,2025-137G,2026-06-11T13:46:05.050848,15.30202994,.0000864,53.1586,259.5341,124.9767,235.1315,0,U,64600,999,5510,.70683E-3,.20635E-3,0
STARLINK-34508,2025-137H,2026-06-11T12:40:44.598144,15.30211950,.00019,53.1621,259.2437,113.3538,246.7663,0,U,64601,999,5510,.51352E-3,.14886E-3,0
STARLINK-34435,2025-137J,2026-06-11T13:11:08.382912,15.30192096,.0000897,53.1585,259.3825,83.4361,276.6741,0,U,64602,999,5510,.55875E-3,.16222E-3,0
STARLINK-34475,2025-137K,2026-06-11T22:00:01.999584,15.33572554,.00012801,53.1604,257.5693,89.6710,187.9191,0,U,64603,999,586,-.80171895E-3,-.26666E-3,0
STARLINK-34488,2025-137L,2026-06-11T14:10:14.354688,15.30201951,.0001427,53.1606,258.9266,96.5872,263.5292,0,U,64604,999,5511,.61443E-3,.17883E-3,0
