STARLINK-34528          
1 64479U 25133H   26162.95873888  .00024007  00000+0  71915-3 0  9995
2 64479  53.1594  35.9351 0001305 105.9421 254.1726 15.34410098 55648
STARLINK-34518          
1 64480U 25133J   26162.95484540  .00023215  00000+0  79359-3 0  9990
2 64480  53.1590  38.7488 0001117  98.3951 261.7177 15.30195673 55461
STARLINK-34526          
1 64481U 25133K   26162.95165887  .00051913  00000+0  17491-2 0  9995
2 64481  53.1592  38.7282 0000856  94.9502 265.1596 15.30265484 55516
STARLINK-34527          
1 64482U 25133L   26162.94217738  .00014276  00000+0  49310-3 0  9995
2 64482  53.1586  38.6672 0001113  93.1774 266.9354 15.30206649 55622
STARLINK-34420          
1 64483U 25133M   26162.93584919  .00019373  00000+0  66440-3 0  9999
2 64483  53.1591  38.6296 0001017  82.8965 277.2151 15.30204970 55626
STARLINK-34509          
1 64484U 25133N   26162.93280537  .00017690  00000+0  60744-3 0  9990
2 64484  53.1600  39.3203 0001444  89.3007 270.8159 15.30228460 55613
STARLINK-34409          
1 64485U 25133P   26162.93068613  .00011690  00000+0  40625-3 0  9990
2 64485  53.1599  39.3015 0001090  71.1785 288.9334 15.30195997 55614
STARLINK-34520          
1 64486U 25133Q   26162.92752239  .00022490  00000+0  76918-3 0  9998
2 64486  53.1597  39.2837 0000866  77.2119 282.8978 15.30198500 55612
STARLINK-34477          
1 64487U 25133R   26162.92434561  .00021236  00000+0  72686-3 0  9999
2 64487  53.1607  39.2668 0000966  66.4655 293.6448 15.30208940 55604
STARLINK-34217          
1 64488U 25133S   26162.92118807  .00027822  00000+0  94783-3 0  9991
2 64488  53.1607  39.2449 0000831  85.7858 274.3238 15.30204433 55507
STARLINK-34307          
1 64489U 25133T   26162.91803310  .00018460  00000+0  63380-3 0  9998
2 64489  53.1608  39.2253 0001326  88.2264 271.8889 15.30201517 55594
STARLINK-34505          
1 64490U 25133U   26162.91485720  .00030005  00000+0  10209-2 0  9991
2 64490  53.1615  39.2012 0001407  95.5835 264.5327 15.30205891 55597
STARLINK-34530          
1 64491U 25133V   26162.96926018  .00018606  00000+0  56059-3 0  9994
2 64491  53.1599  35.9921 0001054  94.2119 265.9004 15.34390838 55632
STARLINK-34522          
1 64492U 25133W   26162.96505255  .00018923  00000+0  56980-3 0  9996
2 64492  53.1604  35.9674 0001092  91.2489 268.8639 15.34397729 55669
STARLINK-34462          
1 64493U 25133X   26162.96294577  .00016137  00000+0  48818-3 0  9995
2 64493  53.1607  35.9521 0001228  77.0330 283.0809 15.34368039 55662
STARLINK-34226          
1 64494U 25133Y   26162.88813792  .00017183  00000+0  56420-3 0  9993
2 64494  53.1590  39.0398 0001492 123.1400 236.9745 15.31700760 55445
STARLINK-34364          
1 64495U 25133Z   26162.91244817  .00025120  00000+0  75225-3 0  9998
2 64495  53.1605  35.6203 0001017 103.9297 256.1819 15.34394459 55660
STARLINK-34363          
1 64497U 25133AB  26162.95663187  .00020404  00000+0  61328-3 0  9998
2 64497  53.1592  35.9146 0001303 131.8800 228.2314 15.34404725 55662
STARLINK-34427          
1 64498U 25133AC  26162.89162639  .00026128  00000+0  89045-3 0  9993
2 64498  53.1593  39.0554 0001109  94.9942 265.1185 15.30227130 55612
STARLINK-34280          
1 64594U 25137A   26162.53779293  .00026954  00000+0  91856-3 0  9995
2 64594  53.1610 259.3152 0001245  88.3901 271.7242 15.30211084 55105
STARLINK-34517          
1 64595U 25137B   26162.91668981 -.00024764  00000+0 -72414-3 0  9997
2 64595  53.1602 257.5814 0001294  87.7385 185.2862 15.34401993  5820
STARLINK-34510          
1 64596U 25137C   26162.48619402  .00029714  00000+0  10109-2 0  9994
2 64596  53.1584 259.7010 0001391  82.2655 277.8503 15.30214669 55092
STARLINK-34486          
1 64597U 25137D   26162.51046956  .00017255  00000+0  59335-3 0  9999
2 64597  53.1609 259.8474 0001778  39.5522 320.5608 15.30200343 55099
STARLINK-34463          
1 64598U 25137E   26162.73913798  .00021127  00000+0  63548-3 0  9995
2 64598  53.1599 258.4331 0001113  84.0484 276.0646 15.34358490 55133
STARLINK-34294          
1 64599U 25137F   26162.55256392  .00017425  00000+0  59887-3 0  9993
2 64599  53.1596 259.4072 0001390  99.5886 260.5272 15.30210010 55109
STARLINK-34504          
1 64600U 25137G   26162.57366957  .00020635  00000+0  70683-3 0  9991
2 64600  53.1586 259.5341 0000864 124.9767 235.1315 15.30202994 55105
STARLINK-34508          
1 64601U 25137H   26162.52829396  .00014886  00000+0  51352-3 0  9991
2 64601  53.1621 259.2437 0001900 113.3538 246.7663 15.30211950 55105
STARLINK-34435          
1 64602U 25137J   26162.54940258  .00016222  00000+0  55875-3 0  9995
2 64602  53.1585 259.3825 0000897  83.4361 276.6741 15.30192096 55100
STARLINK-34475          
1 64603U 25137K   26162.91668981 -.00026666  00000+0 -80172-3 0  9990
2 64603  53.1604 257.5693 0001280  89.6710 187.9191 15.33572554  5864
STARLINK-34488          
1 64604U 25137L   26162.59044392  .00017883  00000+0  61443-3 0  9998
2 64604  53.1606 258.9266 0001427  96.5872 263.5292 15.30201951 55110
